NORAD_CAT_ID,OBJECT_NAME,OBJECT_TYPE,EPOCH,MEAN_MOTION,ECCENTRICITY,INCLINATION,RA_OF_ASC_NODE,ARG_OF_PERICENTER,MEAN_ANOMALY,BSTAR,MEAN_MOTION_DOT,MEAN_MOTION_DDOT,TLE_LINE0,TLE_LINE1,TLE_LINE2,SEMIMAJOR_AXIS,PERIOD,APOGEE,PERIGEE,DECAYED
51770.0,STARLINK-3612,PAYLOAD,2024-06-18 14:26:05,15.08841963,0.0001222,53.2184,283.2118,88.2642,271.849,0.00020984,3.053e-05,0.0,0 STARLINK-3612,1 51770U 22017C   24170.60144936  .00003053  00000-0  20984-3 0  9996,2 51770  53.2184 283.2118 0001222  88.2642 271.8490 15.08841963127643,6917.874,95.437,540.585,538.894,0.0
51770.0,STARLINK-3612,PAYLOAD,2024-06-19 12:41:29,15.08831984,0.0001102,53.2169,279.0437,82.3522,277.7595,4.7999e-05,4.76e-06,0.0,0 STARLINK-3612,1 51770U 22017C   24171.52881500  .00000476  00000-0  47999-4 0  9995,2 51770  53.2169 279.0437 0001102  82.3522 277.7595 15.08831984129221,6917.905,95.438,540.532,539.008,0.0
51770.0,STARLINK-3612,PAYLOAD,2024-06-19 14:16:52,15.08831784,0.000113,53.2169,278.7462,82.9653,277.1468,2.9363e-05,1.79e-06,0.0,0 STARLINK-3612,1 51770U 22017C   24171.59505537  .00000179  00000-0  29363-4 0  9990,2 51770  53.2169 278.7462 0001130  82.9653 277.1468 15.08831784127798,6917.906,95.438,540.552,538.989,0.0
51770.0,STARLINK-3612,PAYLOAD,2024-06-20 12:32:17,15.08836065,0.0001134,53.2176,274.5842,75.5167,284.595,1.5996e-05,-3.3e-07,0.0,0 STARLINK-3612,1 51770U 22017C   24172.52241946 -.00000033  00000-0  15996-4 0  9992,2 51770  53.2176 274.5842 0001134  75.5167 284.5950 15.08836065127935,6917.892,95.438,540.542,538.973,0.0
51770.0,STARLINK-3612,PAYLOAD,2024-06-20 17:18:26,15.08837387,0.0001143,53.2176,273.6921,74.7675,285.3443,2.369e-05,8.9e-07,0.0,0 STARLINK-3612,1 51770U 22017C   24172.72113879  .00000089  00000-0  23690-4 0  9997,2 51770  53.2176 273.6921 0001143  74.7675 285.3443 15.08837387129406,6917.888,95.438,540.544,538.963,0.0
51770.0,STARLINK-3612,PAYLOAD,2024-06-20 23:39:58,15.08847089,0.0001198,53.2188,272.5036,78.2526,281.8601,5.1521e-05,5.32e-06,0.0,0 STARLINK-3612,1 51770U 22017C   24172.98609148  .00000532  00000-0  51521-4 0  9991,2 51770  53.2188 272.5036 0001198  78.2526 281.8601 15.08847089129449,6917.859,95.437,540.552,538.895,0.0
51770.0,STARLINK-3612,PAYLOAD,2024-06-21 13:58:27,15.08835766,0.0001253,53.2188,269.83,87.7505,272.3631,0.00018361,2.635e-05,0.0,0 STARLINK-3612,1 51770U 22017C   24173.58225745  .00002635  00000-0  18361-3 0  9995,2 51770  53.2188 269.8300 0001253  87.7505 272.3631 15.08835766128093,6917.893,95.438,540.625,538.892,0.0
51770.0,STARLINK-3612,PAYLOAD,2024-06-22 13:49:14,15.0883637,0.0001329,53.2188,265.3685,87.3257,272.7887,9.1078e-05,1.162e-05,0.0,0 STARLINK-3612,1 51770U 22017C   24174.57586102  .00001162  00000-0  91078-4 0  9993,2 51770  53.2188 265.3685 0001329  87.3257 272.7887 15.08836370128240,6917.891,95.438,540.676,538.837,0.0
51770.0,STARLINK-3612,PAYLOAD,2024-06-23 12:04:36,15.08850999,0.0001696,53.2182,261.2039,137.6521,222.4602,6.0113e-05,6.69e-06,0.0,0 STARLINK-3612,1 51770U 22017C   24175.50320059  .00000669  00000-0  60113-4 0  9991,2 51770  53.2182 261.2039 0001696 137.6521 222.4602 15.08850999129827,6917.847,95.437,540.885,538.539,0.0
51770.0,STARLINK-3612,PAYLOAD,2024-06-24 11:55:24,15.08834275,0.0001241,53.2172,256.742,86.5037,273.6097,-1.1574e-05,-4.72e-06,0.0,0 STARLINK-3612,1 51770U 22017C   24176.49681264 -.00000472  00000-0 -11574-4 0  9999,2 51770  53.2172 256.7420 0001241  86.5037 273.6097 15.08834275129970,6917.898,95.438,540.621,538.904,0.0
51770.0,STARLINK-3612,PAYLOAD,2024-06-25 10:10:46,15.08922783,0.0001834,53.2182,252.595,105.9208,254.1986,-0.0012092,-0.00019525,0.0,0 STARLINK-3612,1 51770U 22017C   24177.42415189 -.00019525  00000-0 -12092-2 0  9997,2 51770  53.2182 252.5950 0001834 105.9208 254.1986 15.08922783130118,6917.627,95.432,540.761,538.224,0.0
51770.0,STARLINK-3612,PAYLOAD,2024-06-26 11:36:58,15.08839123,0.0001184,53.2167,247.8223,96.2145,263.8982,0.00011871,1.602e-05,0.0,0 STARLINK-3612,1 51770U 22017C   24178.48401013  .00001602  00000-0  11871-3 0  9995,2 51770  53.2167 247.8223 0001184  96.2145 263.8982 15.08839123130276,6917.883,95.438,540.567,538.929,0.0
51770.0,STARLINK-3612,PAYLOAD,2024-06-27 11:27:46,15.0882948,0.0001158,53.2165,243.3618,99.1019,261.0104,4.3025e-06,-2.19e-06,0.0,0 STARLINK-3612,1 51770U 22017C   24179.47762425 -.00000219  00000-0  43025-5 0  9994,2 51770  53.2165 243.3618 0001158  99.1019 261.0104 15.08829480130424,6917.913,95.438,540.579,538.976,0.0
51770.0,STARLINK-3612,PAYLOAD,2024-06-27 16:13:56,15.08828699,0.0001127,53.2163,242.4698,96.6825,263.4296,-6.8204e-06,-3.96e-06,0.0,0 STARLINK-3612,1 51770U 22017C   24179.67634617 -.00000396  00000-0 -68204-5 0  9990,2 51770  53.2163 242.4698 0001127  96.6825 263.4296 15.08828699129015,6917.915,95.438,540.56,539.0,0.0
51770.0,STARLINK-3612,PAYLOAD,2024-06-28 09:43:09,15.0884819,9.41e-05,53.2153,239.198,83.7779,276.332,6.4271e-05,7.35e-06,0.0,0 STARLINK-3612,1 51770U 22017C   24180.40497421  .00000735  00000-0  64271-4 0  9997,2 51770  53.2153 239.1980 0000941  83.7779 276.3320 15.08848190130560,6917.855,95.437,540.371,539.069,0.0
51770.0,STARLINK-3612,PAYLOAD,2024-06-29 12:44:43,15.08841306,8.67e-05,53.2146,234.1436,94.8608,265.2483,0.00012675,1.73e-05,0.0,0 STARLINK-3612,1 51770U 22017C   24181.53105542  .00001730  00000-0  12675-3 0  9998,2 51770  53.2146 234.1436 0000867  94.8608 265.2483 15.08841306130732,6917.876,95.437,540.341,539.142,0.0
51770.0,STARLINK-3612,PAYLOAD,2024-06-29 20:41:39,15.08838658,9.39e-05,53.2152,232.6561,78.6997,281.4101,0.00010293,1.351e-05,0.0,0 STARLINK-3612,1 51770U 22017C   24181.86225881  .00001351  00000-0  10293-3 0  9996,2 51770  53.2152 232.6561 0000939  78.6997 281.4101 15.08838658129340,6917.884,95.438,540.399,539.1,0.0
51770.0,STARLINK-3612,PAYLOAD,2024-06-30 11:00:07,15.088399,9.6e-05,53.2151,229.9813,91.843,268.2672,-0.00011762,-2.159e-05,0.0,0 STARLINK-3612,1 51770U 22017C   24182.45842402 -.00002159  00000-0 -11762-3 0  9997,2 51770  53.2151 229.9813 0000960  91.8430 268.2672 15.08839900130878,6917.881,95.438,540.41,539.082,0.0
51770.0,STARLINK-3612,PAYLOAD,2024-06-30 20:32:26,15.08843124,9.7e-05,53.2154,228.1963,81.6393,278.4709,1.7065e-07,-2.85e-06,0.0,0 STARLINK-3612,1 51770U 22017C   24182.85585875 -.00000285  00000-0  17065-6 0  9991,2 51770  53.2154 228.1963 0000970  81.6393 278.4709 15.08843124129497,6917.871,95.437,540.407,539.065,0.0
51770.0,STARLINK-3612,PAYLOAD,2024-07-01 09:15:31,15.08837263,0.0001095,53.2155,225.8178,76.4894,283.622,7.0622e-05,8.36e-06,0.0,0 STARLINK-3612,1 51770U 22017C   24183.38578088  .00000836  00000-0  70622-4 0  9995,2 51770  53.2155 225.8178 0001095  76.4894 283.6220 15.08837263129579,6917.889,95.438,540.511,538.996,0.0
51770.0,STARLINK-3612,PAYLOAD,2024-07-01 20:23:12,15.08844493,0.000115,53.2157,223.7363,75.6834,284.4286,0.00011468,1.538e-05,0.0,0 STARLINK-3612,1 51770U 22017C   24183.84945544  .00001538  00000-0  11468-3 0  9993,2 51770  53.2157 223.7363 0001150  75.6834 284.4286 15.08844493131084,6917.867,95.437,540.527,538.936,0.0
51770.0,STARLINK-3612,PAYLOAD,2024-07-02 02:44:46,15.08834437,0.0001261,53.2167,222.5473,85.9393,274.1743,0.00014093,1.955e-05,0.0,0 STARLINK-3612,1 51770U 22017C   24184.11442175  .00001955  00000-0  14093-3 0  9996,2 51770  53.2167 222.5473 0001261  85.9393 274.1743 15.08834437131127,6917.897,95.438,540.635,538.89,0.0
51770.0,STARLINK-3612,PAYLOAD,2024-07-02 12:17:05,15.08835984,0.0001298,53.2173,220.7613,93.0148,267.0992,6.101e-05,6.83e-06,0.0,0 STARLINK-3612,1 51770U 22017C   24184.51186448  .00000683  00000-0  61010-4 0  9997,2 51770  53.2173 220.7613 0001298  93.0148 267.0992 15.08835984129748,6917.893,95.438,540.656,538.86,0.0
51770.0,STARLINK-3612,PAYLOAD,2024-07-03 05:46:19,15.08834015,0.0001149,53.2178,217.4903,93.2461,266.8663,8.6299e-05,1.086e-05,0.0,0 STARLINK-3612,1 51770U 22017C   24185.24050539  .00001086  00000-0  86299-4 0  9993,2 51770  53.2178 217.4903 0001149  93.2461 266.8663 15.08834015131292,6917.899,95.438,540.559,538.969,0.0
51770.0,STARLINK-3612,PAYLOAD,2024-07-03 08:57:05,15.08836941,0.0001256,53.2165,216.8962,89.4345,270.6791,1.6686e-05,-2.2e-07,0.0,0 STARLINK-3612,1 51770U 22017C   24185.37298590 -.00000022  00000-0  16686-4 0  9991,2 51770  53.2165 216.8962 0001256  89.4345 270.6791 15.08836941129879,6917.89,95.438,540.624,538.886,0.0
51770.0,STARLINK-3612,PAYLOAD,2024-07-04 08:47:53,15.08833674,0.000114,53.2158,212.4355,85.8456,274.2667,5.5335e-05,5.93e-06,0.0,0 STARLINK-3612,1 51770U 22017C   24186.36658808  .00000593  00000-0  55335-4 0  9999,2 51770  53.2158 212.4355 0001140  85.8456 274.2667 15.08833674131464,6917.9,95.438,540.553,538.976,0.0
51770.0,STARLINK-3612,PAYLOAD,2024-07-04 18:20:11,15.08838133,0.0001109,53.2158,210.6508,83.1483,276.9636,5.0332e-05,5.13e-06,0.0,0 STARLINK-3612,1 51770U 22017C   24186.76402586  .00000513  00000-0  50332-4 0  9997,2 51770  53.2158 210.6508 0001109  83.1483 276.9636 15.08838133130087,6917.886,95.438,540.518,538.984,0.0
51770.0,STARLINK-3612,PAYLOAD,2024-07-05 10:14:03,15.0883722,0.0001174,53.2164,207.6784,86.7822,273.3305,6.2597e-05,7.08e-06,0.0,0 STARLINK-3612,1 51770U 22017C   24187.42642775  .00000708  00000-0  62597-4 0  9999,2 51770  53.2164 207.6784 0001174  86.7822 273.3305 15.08837220131625,6917.889,95.438,540.566,538.942,0.0
51770.0,STARLINK-3612,PAYLOAD,2024-07-05 18:10:58,15.08841026,0.0001188,53.2166,206.1917,86.7089,273.4039,7.2522e-05,8.67e-06,0.0,0 STARLINK-3612,1 51770U 22017C   24187.75762529  .00000867  00000-0  72522-4 0  9990,2 51770  53.2166 206.1917 0001188  86.7089 273.4039 15.08841026130239,6917.877,95.437,540.564,538.92,0.0
51770.0,STARLINK-3612,PAYLOAD,2024-07-06 10:04:50,15.0883659,0.0001235,53.2169,203.2184,87.8364,272.277,4.7418e-05,4.67e-06,0.0,0 STARLINK-3612,1 51770U 22017C   24188.42002997  .00000467  00000-0  47418-4 0  9993,2 51770  53.2169 203.2184 0001235  87.8364 272.2770 15.08836590130337,6917.891,95.438,540.61,538.901,0.0
